{
    "links": {
        "self": "http://www.neowsapp.com/rest/v1/neo/3718315?api_key=iIulBulltgU6a56xZRHN4H3l9WmuAYTsLGpBGhQ2"
    },
    "id": "3718315",
    "neo_reference_id": "3718315",
    "name": "(2015 HV116)",
    "designation": "2015 HV116",
    "nasa_jpl_url": "http://ssd.jpl.nasa.gov/sbdb.cgi?sstr=3718315",
    "absolute_magnitude_h": 21.7,
    "estimated_diameter": {
        "kilometers": {
            "estimated_diameter_min": 0.1214940408,
            "estimated_diameter_max": 0.2716689341
        },
        "meters": {
            "estimated_diameter_min": 121.4940407996,
            "estimated_diameter_max": 271.6689340891
        },
        "miles": {
            "estimated_diameter_min": 0.0754928736,
            "estimated_diameter_max": 0.1688071972
        },
        "feet": {
            "estimated_diameter_min": 398.6025088171,
            "estimated_diameter_max": 891.3023057169
        }
    },
    "is_potentially_hazardous_asteroid": false,
    "close_approach_data": [
        {
            "close_approach_date": "2015-04-20",
            "close_approach_date_full": "2015-Apr-20 22:24",
            "epoch_date_close_approach": 1429568640000,
            "relative_velocity": {
                "kilometers_per_second": "2.5311791651",
                "kilometers_per_hour": "9112.2449944498",
                "miles_per_hour": "5661.994674468"
            },
            "miss_distance": {
                "astronomical": "0.2877124922",
                "lunar": "111.9201594658",
                "kilometers": "43041176.005511614",
                "miles": "26744546.6087197132"
            },
            "orbiting_body": "Earth"
        }
    ],
    "orbital_data": {
        "orbit_id": "16",
        "orbit_determination_date": "2017-04-06 08:34:06",
        "first_observation_date": "2015-04-23",
        "last_observation_date": "2015-06-08",
        "data_arc_in_days": 46,
        "observations_used": 81,
        "orbit_uncertainty": "6",
        "minimum_orbit_intersection": ".285605",
        "jupiter_tisserand_invariant": "3.357",
        "epoch_osculation": "2459000.5",
        "eccentricity": ".4671049813239299",
        "semi_major_axis": "2.416416880004951",
        "inclination": "3.120936253215587",
        "ascending_node_longitude": "240.8996000390401",
        "orbital_period": "1372.006655646537",
        "perihelion_distance": "1.28769651839941",
        "perihelion_argument": "324.919354112609",
        "aphelion_distance": "3.545137241610492",
        "perihelion_time": "2458500.238928047560",
        "mean_anomaly": "131.2632013567105",
        "mean_motion": ".2623893976887128",
        "equinox": "J2000",
        "orbit_class": {
            "orbit_class_type": "AMO",
            "orbit_class_description": "Near-Earth asteroid orbits similar to that of 1221 Amor",
            "orbit_class_range": "1.017 AU < q (perihelion) < 1.3 AU"
        }
    },
    "is_sentry_object": false
}